NORAD_CAT_ID,OBJECT_NAME,OBJECT_TYPE,EPOCH,MEAN_MOTION,ECCENTRICITY,INCLINATION,RA_OF_ASC_NODE,ARG_OF_PERICENTER,MEAN_ANOMALY,BSTAR,MEAN_MOTION_DOT,MEAN_MOTION_DDOT,TLE_LINE0,TLE_LINE1,TLE_LINE2,SEMIMAJOR_AXIS,PERIOD,APOGEE,PERIGEE,DECAYED
54005.0,STARLINK-5135,PAYLOAD,2024-07-29 01:28:48,15.08846207,0.0001628,53.2185,336.2939,85.8537,274.2641,0.00014528,2.025e-05,0.0,0 STARLINK-5135,1 54005U 22125AT  24211.06167803  .00002025  00000-0  14528-3 0  9999,2 54005  53.2185 336.2939 0001628  85.8537 274.2641 15.08846207100657,6917.861,95.437,540.853,538.6,0.0
54005.0,STARLINK-5135,PAYLOAD,2024-07-29 17:22:40,15.08844989,0.000165,53.2193,333.3197,89.2235,270.8946,0.00031975,4.805e-05,0.0,0 STARLINK-5135,1 54005U 22125AT  24211.72407664  .00004805  00000-0  31975-3 0  9997,2 54005  53.2193 333.3197 0001650  89.2235 270.8946 15.08844989100709,6917.865,95.437,540.872,538.589,0.0
54005.0,STARLINK-5135,PAYLOAD,2024-07-30 01:19:36,15.0884789,0.000163,53.2202,331.8302,77.6937,282.4238,0.00019262,2.779e-05,0.0,0 STARLINK-5135,1 54005U 22125AT  24212.05527793  .00002779  00000-0  19262-3 0  9993,2 54005  53.2202 331.8302 0001630  77.6937 282.4238 15.08847890100807,6917.856,95.437,540.849,538.594,0.0
54005.0,STARLINK-5135,PAYLOAD,2024-07-30 14:02:41,15.08850098,0.000203,53.2185,329.4522,77.3748,282.7471,8.8872e-05,1.127e-05,0.0,0 STARLINK-5135,1 54005U 22125AT  24212.58519779  .00001127  00000-0  88872-4 0  9996,2 54005  53.2185 329.4522 0002030  77.3748 282.7471 15.08850098100835,6917.85,95.437,541.119,538.31,0.0
54005.0,STARLINK-5135,PAYLOAD,2024-07-31 01:10:23,15.08843376,0.0001647,53.2191,327.3771,79.4409,280.6769,-0.00010335,-1.933e-05,0.0,0 STARLINK-5135,1 54005U 22125AT  24213.04888505 -.00001933  00000-0 -10335-3 0  9999,2 54005  53.2191 327.3771 0001647  79.4409 280.6769 15.08843376100956,6917.87,95.437,540.874,538.596,0.0
54005.0,STARLINK-5135,PAYLOAD,2024-07-31 12:18:06,15.08833349,0.0001675,53.218,325.2912,92.8139,267.3045,-0.00012728,-2.313e-05,0.0,0 STARLINK-5135,1 54005U 22125AT  24213.51257295 -.00002313  00000-0 -12728-3 0  9998,2 54005  53.2180 325.2912 0001675  92.8139 267.3045 15.08833349101025,6917.901,95.438,540.924,538.607,0.0
54005.0,STARLINK-5135,PAYLOAD,2024-07-31 13:53:29,15.08837011,0.0002152,53.2172,324.9904,96.2651,263.8586,-0.00010281,-1.924e-05,0.0,0 STARLINK-5135,1 54005U 22125AT  24213.57881078 -.00001924  00000-0 -10281-3 0  9995,2 54005  53.2172 324.9904 0002152  96.2651 263.8586 15.08837011100986,6917.89,95.438,541.243,538.266,0.0
54005.0,STARLINK-5135,PAYLOAD,2024-08-01 13:44:13,15.08862857,0.000123,53.2169,320.5366,79.0404,281.0727,0.00027966,4.168e-05,0.0,0 STARLINK-5135,1 54005U 22125AT  24214.57238019  .00004168  00000-0  27966-3 0  9996,2 54005  53.2169 320.5366 0001230  79.0404 281.0727 15.08862857101130,6917.811,95.436,540.526,538.825,0.0
54005.0,STARLINK-5135,PAYLOAD,2024-08-02 13:35:03,15.08827534,0.000147,53.218,316.0714,94.1956,265.9204,6.74e-05,7.85e-06,0.0,0 STARLINK-5135,1 54005U 22125AT  24215.56601119  .00000785  00000-0  67400-4 0  9990,2 54005  53.2180 316.0714 0001470  94.1956 265.9204 15.08827534101332,6917.918,95.438,540.8,538.767,0.0
54005.0,STARLINK-5135,PAYLOAD,2024-08-03 13:25:48,15.0885513,0.0001533,53.2176,311.6163,105.4572,254.659,6.598e-05,7.63e-06,0.0,0 STARLINK-5135,1 54005U 22125AT  24216.55959272  .00000763  00000-0  65980-4 0  9993,2 54005  53.2176 311.6163 0001533 105.4572 254.6590 15.08855130101488,6917.834,95.437,540.76,538.639,0.0
54005.0,STARLINK-5135,PAYLOAD,2024-08-03 22:58:08,15.08839134,9.42e-05,53.2169,309.8281,67.9331,292.1761,5.8338e-05,6.41e-06,0.0,0 STARLINK-5135,1 54005U 22125AT  24216.95704168  .00000641  00000-0  58338-4 0  9993,2 54005  53.2169 309.8281 0000942  67.9331 292.1761 15.08839134101548,6917.883,95.438,540.4,539.096,0.0
54005.0,STARLINK-5135,PAYLOAD,2024-08-04 14:51:59,15.08848608,0.0001487,53.2178,306.8558,94.2665,265.8497,0.00024008,3.536e-05,0.0,0 STARLINK-5135,1 54005U 22125AT  24217.61943350  .00003536  00000-0  24008-3 0  9997,2 54005  53.2178 306.8558 0001487  94.2665 265.8497 15.08848608101594,6917.854,95.437,540.748,538.69,0.0
54005.0,STARLINK-5135,PAYLOAD,2024-08-04 22:48:54,15.08853234,0.0001444,53.2173,305.3712,95.4422,264.6735,0.00020333,2.951e-05,0.0,0 STARLINK-5135,1 54005U 22125AT  24217.95063093  .00002951  00000-0  20333-3 0  9998,2 54005  53.2173 305.3712 0001444  95.4422 264.6735 15.08853234101641,6917.84,95.437,540.704,538.706,0.0
54005.0,STARLINK-5135,PAYLOAD,2024-08-05 13:07:22,15.08852129,0.0001721,53.2185,302.6946,94.4773,265.6416,4.3357e-05,4.02e-06,0.0,0 STARLINK-5135,1 54005U 22125AT  24218.54679327  .00000402  00000-0  43357-4 0  9998,2 54005  53.2185 302.6946 0001721  94.4773 265.6416 15.08852129101783,6917.843,95.437,540.899,538.518,0.0
54005.0,STARLINK-5135,PAYLOAD,2024-08-05 22:39:42,15.08842716,0.0001472,53.2173,300.9081,91.8668,268.2493,-0.00011002,-2.039e-05,0.0,0 STARLINK-5135,1 54005U 22125AT  24218.94424072 -.00002039  00000-0 -11002-3 0  9998,2 54005  53.2173 300.9081 0001472  91.8668 268.2493 15.08842716101794,6917.872,95.437,540.755,538.719,0.0
54005.0,STARLINK-5135,PAYLOAD,2024-08-06 11:22:49,15.08824703,0.0001452,53.2165,298.5301,103.3348,256.7806,-0.00019732,-3.426e-05,0.0,0 STARLINK-5135,1 54005U 22125AT  24219.47418058 -.00003426  00000-0 -19732-3 0  9993,2 54005  53.2165 298.5301 0001452 103.3348 256.7806 15.08824703101925,6917.927,95.439,540.797,538.788,0.0
54005.0,STARLINK-5135,PAYLOAD,2024-08-06 12:58:12,15.0882685,0.0001426,53.2168,298.2349,104.2987,255.8164,-0.00014352,-2.57e-05,0.0,0 STARLINK-5135,1 54005U 22125AT  24219.54041806 -.00002570  00000-0 -14352-3 0  9996,2 54005  53.2168 298.2349 0001426 104.2987 255.8164 15.08826850101884,6917.921,95.438,540.772,538.799,0.0
54005.0,STARLINK-5135,PAYLOAD,2024-08-07 11:13:34,15.08849573,0.0001439,53.2164,294.0742,90.0411,270.0746,7.8271e-06,-1.63e-06,0.0,0 STARLINK-5135,1 54005U 22125AT  24220.46776195 -.00000163  00000-0  78271-5 0  9992,2 54005  53.2164 294.0742 0001439  90.0411 270.0746 15.08849573102073,6917.851,95.437,540.712,538.721,0.0
54005.0,STARLINK-5135,PAYLOAD,2024-08-08 11:04:21,15.08842122,0.0001586,53.2161,289.613,74.2117,285.905,0.00026445,3.923e-05,0.0,0 STARLINK-5135,1 54005U 22125AT  24221.46136443  .00003923  00000-0  26445-3 0  9999,2 54005  53.2161 289.6130 0001586  74.2117 285.9050 15.08842122102224,6917.874,95.437,540.836,538.642,0.0
54005.0,STARLINK-5135,PAYLOAD,2024-08-08 22:12:03,15.0884225,0.000188,53.2162,287.5309,62.2351,297.8832,0.00025866,3.831e-05,0.0,0 STARLINK-5135,1 54005U 22125AT  24221.92504524  .00003831  00000-0  25866-3 0  9993,2 54005  53.2162 287.5309 0001880  62.2351 297.8832 15.08842250102248,6917.874,95.437,541.039,538.438,0.0
54005.0,STARLINK-5135,PAYLOAD,2024-08-09 14:05:54,15.08853046,0.0001784,53.2183,284.5512,118.0056,242.1117,-3.5399e-05,-8.52e-06,0.0,0 STARLINK-5135,1 54005U 22125AT  24222.58743806 -.00000852  00000-0 -35399-4 0  9999,2 54005  53.2183 284.5512 0001784 118.0056 242.1117 15.08853046102344,6917.841,95.437,540.94,538.471,0.0
54005.0,STARLINK-5135,PAYLOAD,2024-08-10 09:10:33,15.08837688,0.0001986,53.2171,280.9771,121.578,238.5406,-0.00013452,-2.428e-05,0.0,0 STARLINK-5135,1 54005U 22125AT  24223.38233331 -.00002428  00000-0 -13452-3 0  9991,2 54005  53.2171 280.9771 0001986 121.5780 238.5406 15.08837688102518,6917.887,95.438,541.126,538.379,0.0
54005.0,STARLINK-5135,PAYLOAD,2024-08-11 10:36:44,15.08827912,0.000148,53.2167,276.2315,88.3924,271.7238,8.8252e-05,1.116e-05,0.0,0 STARLINK-5135,1 54005U 22125AT  24224.44218447  .00001116  00000-0  88252-4 0  9992,2 54005  53.2167 276.2315 0001480  88.3924 271.7238 15.08827912102672,6917.917,95.438,540.806,538.758,0.0
54005.0,STARLINK-5135,PAYLOAD,2024-08-11 20:09:02,15.0884678,0.0001413,53.2172,274.4401,90.0908,270.0246,0.0001577,2.223e-05,0.0,0 STARLINK-5135,1 54005U 22125AT  24224.83961347  .00002223  00000-0  15770-3 0  9993,2 54005  53.2172 274.4401 0001413  90.0908 270.0246 15.08846780102734,6917.86,95.437,540.702,538.747,0.0
54005.0,STARLINK-5135,PAYLOAD,2024-08-12 10:27:29,15.0887635,0.0001557,53.2156,271.7697,90.8639,269.2532,0.00070709,0.00010994,0.0,0 STARLINK-5135,1 54005U 22125AT  24225.43575668  .00010994  00000-0  70709-3 0  9994,2 54005  53.2156 271.7697 0001557  90.8639 269.2532 15.08876350102825,6917.769,95.435,540.711,538.557,0.0
54005.0,STARLINK-5135,PAYLOAD,2024-08-12 19:59:48,15.08868272,0.000171,53.2151,269.9856,71.3026,288.8152,0.00048504,7.446e-05,0.0,0 STARLINK-5135,1 54005U 22125AT  24225.83319549  .00007446  00000-0  48504-3 0  9998,2 54005  53.2151 269.9856 0001710  71.3026 288.8152 15.08868272102831,6917.794,95.436,540.842,538.476,0.0
54005.0,STARLINK-5135,PAYLOAD,2024-08-13 02:21:21,15.08857968,0.0002841,53.215,268.7958,74.7938,285.3368,0.00024069,3.546e-05,0.0,0 STARLINK-5135,1 54005U 22125AT  24226.09816156  .00003546  00000-0  24069-3 0  9990,2 54005  53.2150 268.7958 0002841  74.7938 285.3368 15.08857968102926,6917.825,95.436,541.656,537.725,0.0
54005.0,STARLINK-5135,PAYLOAD,2024-08-13 11:53:40,15.08833569,0.0001769,53.2166,267.0094,68.8195,291.2986,-0.00018464,-3.225e-05,0.0,0 STARLINK-5135,1 54005U 22125AT  24226.49561015 -.00003225  00000-0 -18464-3 0  9993,2 54005  53.2166 267.0094 0001769  68.8195 291.2986 15.08833569102982,6917.9,95.438,540.989,538.541,0.0
54005.0,STARLINK-5135,PAYLOAD,2024-08-13 19:50:36,15.08830734,0.0001791,53.2157,265.5211,67.4694,292.6487,-0.00042372,-7.024e-05,0.0,0 STARLINK-5135,1 54005U 22125AT  24226.82680712 -.00007024  00000-0 -42372-3 0  9992,2 54005  53.2157 265.5211 0001791  67.4694 292.6487 15.08830734102982,6917.909,95.438,541.013,538.535,0.0
54005.0,STARLINK-5135,PAYLOAD,2024-08-14 11:44:28,15.08828788,0.0001888,53.2168,262.549,70.9856,289.134,-0.00022467,-3.861e-05,0.0,0 STARLINK-5135,1 54005U 22125AT  24227.48921319 -.00003861  00000-0 -22467-3 0  9994,2 54005  53.2168 262.5490 0001888  70.9856 289.1340 15.08828788103083,6917.915,95.438,541.086,538.474,0.0
